IRIDIUM 171             
1 43929U 19002H   25003.47873452  .00000644  00000+0  22286-3 0  9995
2 43929  86.3982 215.1544 0002280  97.0886 263.0569 14.34221091313035
IRIDIUM 170             
1 43930U 19002J   25003.56079069  .00002500  00000+0  39229-3 0  9997
2 43930  86.6095 214.9047 0002333  80.2767 279.8713 14.72273415321338
IRIDIUM 167             
1 43931U 19002K   25003.33285562  .00000573  00000+0  19761-3 0  9997
2 43931  86.3973 214.9856 0001840  99.7677 260.3727 14.34219519313015
IRIDIUM 181             
1 56726U 23068S   25003.50126408  .00001585  00000+0  46248-3 0  9996
2 56726  86.6854 277.7462 0002550  91.3833 268.7660 14.43581874 86036
IRIDIUM 177             
1 56727U 23068T   25003.59636411  .00003064  00000+0  39961-3 0  9994
2 56727  86.1966 220.1922 0001900  85.5600 274.5837 14.80243535 88026
IRIDIUM 174             
1 56728U 23068U   25003.59096276  .00002940  00000+0  38333-3 0  9998
2 56728  86.1969 220.3144 0002463  89.1937 270.9566 14.80232035 88028
IRIDIUM 178             
1 56729U 23068V   25003.58553637  .00004606  00000+0  60262-3 0  9994
2 56729  86.5764 247.2604 0003030  89.3700 270.7869 14.80225112 88028
IRIDIUM 179             
1 56730U 23068W   25003.44490283  .00000541  00000+0  67795-4 0  9991
2 56730  86.6774 253.9765 0002500  77.3612 282.7889 14.80234230 88008
